{"type": "Feature", "properties": {"name": "Cardiff", "iso2": "GB-CRF", "admin_level": 6, "osm_id": 1625787, "wikidata_id": "Q24342199", "wikipedia_id": null, "population": 364248, "countrylevel_id": "iso2:GB-CRF", "osm_data": {"localname": "Cardiff", "official_name": "", "alltags": {"name:ar": "كارديف", "name:cy": "Caerdydd", "name:el": "Κάρντιφ", "name:en": "Cardiff", "name:fa": "کاردیف", "name:ur": "کارڈف", "name:zh": "卡迪夫", "ref:gss": "W06000015", "long_name": "City and County of Cardiff", "border_type": "city", "designation": "principal_area", "council_name": "City of Cardiff Council", "council_style": "city_and_county", "is_in:country": "United Kingdom", "council_name:cy": "Cyngor Dinas Caerdydd", "council_name:en": "City of Cardiff Council", "is_in:country_code": "GB"}}}, "geometry": {"type": "MultiPolygon", "coordinates": [[[[-3.118, 51.375], [-3.118, 51.375], [-3.118, 51.375], [-3.118, 51.375]]], [[[-3.238, 51.553], [-3.119, 51.546], [-3.083, 51.502], [-3.083, 51.502], [-3.164, 51.446], [-3.164, 51.446], [-3.164, 51.446], [-3.165, 51.446], [-3.166, 51.446], [-3.166, 51.446], [-3.336, 51.508], [-3.238, 51.553]]]]}}