{"type": "Feature", "properties": {"name": "Bulgan", "iso2": "MN-067", "admin_level": 4, "osm_id": 270073, "wikidata_id": "Q209774", "wikipedia_id": null, "population": 60014, "countrylevel_id": "iso2:MN-067", "osm_data": {"localname": "Булган", "official_name": "", "alltags": {"name:ar": "محافظة بولغان", "name:en": "Bulgan", "name:es": "Bulgan", "name:fr": "Bulgan", "name:it": "Bulgan", "name:ja": "ボルガン", "name:mn": "Булган", "name:ru": "Булган", "int_name": "Bulgan", "timezone": "Asia/Ulaanbaatar", "is_in:country": "Mongolia", "name:zh_pinyin": "Xīnbā'ěrhǔ Yòu Qí", "is_in:continent": "Asia", "is_in:country_code": "MN"}}}, "geometry": {"type": "MultiPolygon", "coordinates": [[[[101.666, 48.963], [102.131, 48.811], [102.238, 48.481], [103.678, 47.251], [104.147, 47.298], [104.069, 47.468], [104.76, 47.662], [104.704, 47.945], [104.288, 48.144], [104.528, 48.626], [104.378, 48.899], [104.52, 49.106], [104.734, 49.686], [104.363, 50.263], [104.139, 50.139], [103.256, 50.193], [102.643, 50.41], [102.138, 49.905], [102.785, 49.692], [101.677, 49.193], [101.666, 48.963]]]]}}