{"type": "Feature", "properties": {"name": "Tel Aviv District", "iso2": "IL-TA", "admin_level": 4, "osm_id": 1400916, "wikidata_id": "Q192811", "wikipedia_id": "de:Bezirk Tel Aviv", "population": 1350000, "countrylevel_id": "iso2:IL-TA", "osm_data": {"localname": "מחוז תל אביב", "official_name": "", "alltags": {"name:el": "Περιφέρεια Τελ Αβίβ", "name:en": "Tel Aviv District", "name:es": "Distrito de Tel Aviv", "name:fi": "Tel Avivin hallintoalue", "name:fr": "District de Tel Aviv", "name:he": "מחוז תל אביב", "name:hu": "Tel-Avivi körzet", "name:it": "Distretto di Tel Aviv", "name:pl": "Dystrykt Tel Awiwu", "name:pt": "Distrito de Tel Aviv", "name:ro": "Districtul Tel Aviv", "name:ru": "Тель-Авивский округ", "complete:relation": "yes"}}}, "geometry": {"type": "MultiPolygon", "coordinates": [[[[34.752, 32.057], [34.752, 32.057], [34.752, 32.057], [34.752, 32.057]]], [[[34.751, 32.056], [34.751, 32.056], [34.751, 32.056], [34.751, 32.056]]], [[[34.75, 32.056], [34.75, 32.056], [34.75, 32.056], [34.75, 32.056]]], [[[34.809, 32.202], [34.733, 32.004], [34.809, 32.202], [34.809, 32.202]]]]}}