{"type": "Feature", "properties": {"name": "Appenzell Innerrhoden", "iso2": "CH-AI", "admin_level": 4, "osm_id": 1686666, "wikidata_id": "Q12094", "wikipedia_id": "de:Kanton Appenzell Innerrhoden", "population": 16145, "countrylevel_id": "iso2:CH-AI", "osm_data": {"localname": "Appenzell Innerrhoden", "official_name": "", "alltags": {"name:ca": "Appenzell Inner-Rhoden", "name:fr": "Appenzell Rhodes-Intérieures", "name:it": "Appenzello Interno", "name:lt": "Apencelis-Inerodenas", "name:rm": "Appenzell Dadens", "name:ru": "Аппенцелль-Иннерроден", "alt_name": "Kanton Appenzell Innerrhoden", "name:gsw": "Appezell Innerrhode", "name:prefix": "Kanton", "swisstopo:KANTONSNUM": "16"}}}, "geometry": {"type": "MultiPolygon", "coordinates": [[[[9.343, 47.249], [9.503, 47.347], [9.343, 47.249], [9.343, 47.249]]], [[[9.362, 47.386], [9.362, 47.386], [9.362, 47.386], [9.362, 47.386]]], [[[9.51, 47.395], [9.555, 47.396], [9.51, 47.395], [9.51, 47.395]]], [[[9.583, 47.41], [9.618, 47.438], [9.583, 47.41], [9.583, 47.41]]], [[[9.612, 47.443], [9.612, 47.443], [9.612, 47.443], [9.612, 47.443]]]]}}