{"type": "Feature", "properties": {"name": "Vienna", "iso2": "AT-9", "admin_level": 4, "osm_id": 109166, "wikidata_id": "Q1741", "wikipedia_id": "de:Wien", "population": 1888776, "countrylevel_id": "iso2:AT-9", "osm_data": {"localname": "Wien", "official_name": "", "alltags": {"capital": "yes", "name:ar": "فيينا", "name:be": "Вена", "name:ca": "Viena", "name:en": "Vienna", "name:es": "Viena", "name:fr": "Vienne", "name:fy": "Wenen", "name:hr": "Beč", "name:hu": "Bécs", "name:ko": "빈", "name:nl": "Wenen", "name:pl": "Wiedeń", "name:ru": "Вена", "name:sk": "Viedeň", "name:sl": "Dunaj", "name:vi": "Viên", "website": "https://www.wien.gv.at/", "name:tzl": "Viadna", "ref:at:gkz": "90001", "description": "Wien (Vienna) is \"Bundesland\" and \"Statutarstadt\" which equals admin_levels 4, 6, 8", "is_in:country": "Austria", "name:be-tarask": "Вена", "name:prefix:at": "Statutarstadt", "is_in:continent": "Europe", "is_in:country_code": "AT"}}}, "geometry": {"type": "MultiPolygon", "coordinates": [[[[16.182, 48.171], [16.182, 48.171], [16.182, 48.171], [16.182, 48.171]]]]}}